NORAD_CAT_ID,OBJECT_NAME,OBJECT_TYPE,EPOCH,MEAN_MOTION,ECCENTRICITY,INCLINATION,RA_OF_ASC_NODE,ARG_OF_PERICENTER,MEAN_ANOMALY,BSTAR,MEAN_MOTION_DOT,MEAN_MOTION_DDOT,TLE_LINE0,TLE_LINE1,TLE_LINE2,SEMIMAJOR_AXIS,PERIOD,APOGEE,PERIGEE,DECAYED
55942.0,STARLINK-5917,PAYLOAD,2023-05-05 20:21:04,15.69921856,0.0003446,69.9997,43.0749,255.1437,104.9377,6.7416e-06,5.98e-06,0.0,0 STARLINK-5917,1 55942U 23037AE  23125.84796852  .00000598  00000-0  67416-5 0  9993,2 55942  69.9997  43.0749 0003446 255.1437 104.9377 15.69921856  7894,6737.258,91.724,361.444,356.801,0.0
55942.0,STARLINK-5917,PAYLOAD,2023-05-06 03:59:49,15.69925491,0.0003401,70.0,42.1799,251.9959,108.0866,1.0343e-05,1.031e-05,0.0,0 STARLINK-5917,1 55942U 23037AE  23126.16654959  .00001031  00000-0  10343-4 0  9999,2 55942  70.0000  42.1799 0003401 251.9959 108.0866 15.69925491  7944,6737.247,91.724,361.404,356.821,0.0
55942.0,STARLINK-5917,PAYLOAD,2023-05-06 20:49:04,15.69942524,0.0003518,69.9995,40.2079,258.5705,101.5096,2.7028e-05,3.041e-05,0.0,0 STARLINK-5917,1 55942U 23037AE  23126.86741662  .00003041  00000-0  27028-4 0  9995,2 55942  69.9995  40.2079 0003518 258.5705 101.5096 15.69942524  8394,6737.198,91.723,361.434,356.693,0.0
55942.0,STARLINK-5917,PAYLOAD,2023-05-07 04:27:52,15.69909604,0.0003539,69.9992,39.3125,256.4757,103.6044,-9.3786e-06,-1.34e-05,0.0,0 STARLINK-5917,1 55942U 23037AE  23127.18602826 -.00001340  00000-0 -93786-5 0  9996,2 55942  69.9992  39.3125 0003539 256.4757 103.6044 15.69909604  8443,6737.293,91.725,361.542,356.773,0.0
55942.0,STARLINK-5917,PAYLOAD,2023-05-07 21:17:08,15.69922935,0.0004081,69.9988,37.3424,264.2608,95.8122,2.3826e-06,7.3e-07,0.0,0 STARLINK-5917,1 55942U 23037AE  23127.88690470  .00000073  00000-0  23826-5 0  9993,2 55942  69.9988  37.3424 0004081 264.2608  95.8122 15.69922935  8556,6737.254,91.724,361.869,356.37,0.0
55942.0,STARLINK-5917,PAYLOAD,2023-05-08 03:24:08,15.69930079,0.0003682,70.0009,36.6267,263.0747,97.003,2.9944e-05,3.39e-05,0.0,0 STARLINK-5917,1 55942U 23037AE  23128.14176604  .00003390  00000-0  29944-4 0  9992,2 55942  70.0009  36.6267 0003682 263.0747  97.0030 15.69930079  8591,6737.234,91.724,361.58,356.618,0.0
55942.0,STARLINK-5917,PAYLOAD,2023-05-08 20:13:25,15.69920038,0.000372,70.0017,34.6541,264.9504,95.1267,-1.1014e-05,-1.537e-05,0.0,0 STARLINK-5917,1 55942U 23037AE  23128.84265095 -.00001537  00000-0 -11014-4 0  9994,2 55942  70.0017  34.6541 0003720 264.9504  95.1267 15.69920038  8367,6737.263,91.724,361.634,356.622,0.0
55942.0,STARLINK-5917,PAYLOAD,2023-05-09 03:52:09,15.69943954,0.0003726,70.001,33.7596,267.8118,92.2651,5.6523e-05,6.595e-05,0.0,0 STARLINK-5917,1 55942U 23037AE  23129.16122612  .00006595  00000-0  56523-4 0  9998,2 55942  70.0010  33.7596 0003726 267.8118  92.2651 15.69943954  8412,6737.194,91.723,361.57,356.549,0.0
55942.0,STARLINK-5917,PAYLOAD,2023-05-10 02:48:27,15.69915903,0.0003814,70.001,31.0739,257.3424,102.7345,-2.0404e-05,-2.665e-05,0.0,0 STARLINK-5917,1 55942U 23037AE  23130.11698590 -.00002665  00000-0 -20404-4 0  9993,2 55942  70.0010  31.0739 0003814 257.3424 102.7345 15.69915903  8560,6737.275,91.725,361.709,356.57,0.0
55942.0,STARLINK-5917,PAYLOAD,2023-05-10 18:05:58,15.69929708,0.0003956,70.0012,29.2793,266.5809,93.4934,3.2707e-05,3.723e-05,0.0,0 STARLINK-5917,1 55942U 23037AE  23130.75415111  .00003723  00000-0  32707-4 0  9992,2 55942  70.0012  29.2793 0003956 266.5809  93.4934 15.69929708  9005,6737.235,91.724,361.765,356.435,0.0
55942.0,STARLINK-5917,PAYLOAD,2023-05-10 19:37:43,15.69931695,0.0004114,70.001,29.1002,271.7338,88.3387,4.0113e-05,4.615e-05,0.0,0 STARLINK-5917,1 55942U 23037AE  23130.81786808  .00004615  00000-0  40113-4 0  9994,2 55942  70.0010  29.1002 0004114 271.7338  88.3387 15.69931695  8672,6737.229,91.724,361.866,356.323,0.0
55942.0,STARLINK-5917,PAYLOAD,2023-05-11 03:16:29,15.69932854,0.000385,70.0013,28.2052,265.8701,94.2054,4.1851e-05,4.824e-05,0.0,0 STARLINK-5917,1 55942U 23037AE  23131.13644946  .00004824  00000-0  41851-4 0  9998,2 55942  70.0013  28.2052 0003850 265.8701  94.2054 15.69932854  8725,6737.226,91.724,361.685,356.497,0.0
55942.0,STARLINK-5917,PAYLOAD,2023-05-11 23:09:16,15.69944261,0.0003644,70.0011,25.88,263.877,96.201,9.4658e-05,0.00011194,0.0,0 STARLINK-5917,1 55942U 23037AE  23131.96476861  .00011194  00000-0  94658-4 0  9999,2 55942  70.0011  25.8800 0003644 263.8770  96.2010 15.69944261  9193,6737.193,91.723,361.514,356.603,0.0
55942.0,STARLINK-5917,PAYLOAD,2023-05-12 02:12:46,15.69941596,0.0003837,70.0004,25.5176,264.0799,95.9959,8.0211e-05,9.45e-05,0.0,0 STARLINK-5917,1 55942U 23037AE  23132.09220073  .00009450  00000-0  80211-4 0  9998,2 55942  70.0004  25.5176 0003837 264.0799  95.9959 15.69941596  8876,6737.201,91.723,361.651,356.481,0.0
55942.0,STARLINK-5917,PAYLOAD,2023-05-12 19:02:03,15.69926292,0.0003139,70.0019,23.5485,261.4504,98.6336,2.6741e-05,3.004e-05,0.0,0 STARLINK-5917,1 55942U 23037AE  23132.79309095  .00003004  00000-0  26741-4 0  9994,2 55942  70.0019  23.5485 0003139 261.4504  98.6336 15.69926292  9329,6737.245,91.724,361.225,356.995,0.0
55942.0,STARLINK-5917,PAYLOAD,2023-05-13 02:40:48,15.69931951,0.0003067,70.0014,22.6523,258.5644,101.5208,6.7148e-05,7.871e-05,0.0,0 STARLINK-5917,1 55942U 23037AE  23133.11167258  .00007871  00000-0  67148-4 0  9996,2 55942  70.0014  22.6523 0003067 258.5644 101.5208 15.69931951  9037,6737.229,91.724,361.16,357.027,0.0
55942.0,STARLINK-5917,PAYLOAD,2023-05-13 19:30:05,15.6992177,0.0002999,70.0019,20.6823,247.6099,112.4779,2.667e-05,2.995e-05,0.0,0 STARLINK-5917,1 55942U 23037AE  23133.81255917  .00002995  00000-0  26670-4 0  9990,2 55942  70.0019  20.6823 0002999 247.6099 112.4779 15.69921770  9143,6737.258,91.724,361.143,357.102,0.0
55942.0,STARLINK-5917,PAYLOAD,2023-05-14 06:12:20,15.69935553,0.0003093,70.0021,19.4293,259.3653,100.7195,6.8089e-05,7.986e-05,0.0,0 STARLINK-5917,1 55942U 23037AE  23134.25857458  .00007986  00000-0  68089-4 0  9992,2 55942  70.0021  19.4293 0003093 259.3653 100.7195 15.69935553  9556,6737.218,91.724,361.167,357.0,0.0
55942.0,STARLINK-5917,PAYLOAD,2023-05-14 19:58:07,15.69911371,0.0003518,70.0026,17.8171,269.6371,90.4422,-2.3388e-05,-3.022e-05,0.0,0 STARLINK-5917,1 55942U 23037AE  23134.83203089 -.00003022  00000-0 -23388-4 0  9993,2 55942  70.0026  17.8171 0003518 269.6371  90.4422 15.69911371  9304,6737.288,91.725,361.523,356.782,0.0
55942.0,STARLINK-5917,PAYLOAD,2023-05-15 00:33:22,15.69925801,0.0003213,70.0023,17.2815,257.8138,102.2698,2.0925e-05,2.304e-05,0.0,0 STARLINK-5917,1 55942U 23037AE  23135.02317854  .00002304  00000-0  20925-4 0  9995,2 55942  70.0023  17.2815 0003213 257.8138 102.2698 15.69925801  9672,6737.246,91.724,361.276,356.947,0.0
55942.0,STARLINK-5917,PAYLOAD,2023-05-15 09:43:53,15.69930384,0.0003526,70.0018,16.2044,265.5108,94.5685,3.6267e-05,4.151e-05,0.0,0 STARLINK-5917,1 55942U 23037AE  23135.40547629  .00004151  00000-0  36267-4 0  9990,2 55942  70.0018  16.2044 0003526 265.5108  94.5685 15.69930384  9399,6737.233,91.724,361.474,356.723,0.0
55942.0,STARLINK-5917,PAYLOAD,2023-05-15 17:22:38,15.69927722,0.0003268,70.0013,15.3084,264.1231,95.9592,1.9363e-05,2.116e-05,0.0,0 STARLINK-5917,1 55942U 23037AE  23135.72406104  .00002116  00000-0  19363-4 0  9994,2 55942  70.0013  15.3084 0003268 264.1231  95.9592 15.69927722  9443,6737.241,91.724,361.308,356.904,0.0
55942.0,STARLINK-5917,PAYLOAD,2023-05-16 01:01:24,15.69930822,0.0002989,70.0017,14.4128,263.7753,96.3102,2.9957e-05,3.392e-05,0.0,0 STARLINK-5917,1 55942U 23037AE  23136.04264373  .00003392  00000-0  29957-4 0  9997,2 55942  70.0017  14.4128 0002989 263.7753  96.3102 15.69930822  9839,6737.232,91.724,361.111,357.083,0.0
55942.0,STARLINK-5917,PAYLOAD,2023-05-16 22:25:55,15.6993193,0.0002631,70.0027,11.9061,257.1154,102.9748,2.619e-05,2.939e-05,0.0,0 STARLINK-5917,1 55942U 23037AE  23136.93467576  .00002939  00000-0  26190-4 0  9997,2 55942  70.0027  11.9061 0002631 257.1154 102.9748 15.69931930  9633,6737.229,91.724,360.866,357.321,0.0
55942.0,STARLINK-5917,PAYLOAD,2023-05-17 01:29:26,15.69904402,0.0002774,70.0028,11.5463,266.5595,93.5283,-4.486e-05,-5.598e-05,0.0,0 STARLINK-5917,1 55942U 23037AE  23137.06211619 -.00005598  00000-0 -44860-4 0  9997,2 55942  70.0028  11.5463 0002774 266.5595  93.5283 15.69904402  9999,6737.308,91.725,361.041,357.304,0.0
55942.0,STARLINK-5917,PAYLOAD,2023-05-17 18:18:42,15.69927913,0.0003215,70.0012,9.5808,271.8699,88.2128,2.0032e-05,2.197e-05,0.0,0 STARLINK-5917,1 55942U 23037AE  23137.76299295  .00002197  00000-0  20032-4 0  9995,2 55942  70.0012   9.5808 0003215 271.8699  88.2128 15.69927913 10103,6737.24,91.724,361.271,356.939,0.0
55942.0,STARLINK-5917,PAYLOAD,2023-05-18 01:57:28,15.69925617,0.0003393,70.0001,8.6804,268.7616,91.3191,2.7289e-06,1.15e-06,0.0,0 STARLINK-5917,1 55942U 23037AE  23138.08157867  .00000115  00000-0  27289-5 0  9999,2 55942  70.0001   8.6804 0003393 268.7616  91.3191 15.69925617  9818,6737.247,91.724,361.398,356.826,0.0
55942.0,STARLINK-5917,PAYLOAD,2023-05-19 19:14:48,15.69880317,0.0003379,69.9996,3.8439,276.6721,83.409,0.0001686,0.00020072,0.0,0 STARLINK-5917,1 55942U 23037AE  23139.80195360  .00020072  00000-0  16860-3 0  9995,2 55942  69.9996   3.8439 0003379 276.6721  83.4090 15.69880317 10086,6737.376,91.727,361.518,356.965,0.0
55942.0,STARLINK-5917,PAYLOAD,2023-05-20 01:21:47,15.69924383,0.0003615,69.9985,3.1268,273.877,86.2013,2.7017e-05,3.037e-05,0.0,0 STARLINK-5917,1 55942U 23037AE  23140.05679704  .00003037  00000-0  27017-4 0  9992,2 55942  69.9985   3.1268 0003615 273.8770  86.2013 15.69924383 10463,6737.25,91.724,361.551,356.68,0.0
55942.0,STARLINK-5917,PAYLOAD,2023-05-20 18:11:04,15.6991711,0.0002633,70.0005,1.156,253.5329,106.5577,-4.6757e-07,-2.68e-06,0.0,0 STARLINK-5917,1 55942U 23037AE  23140.75768542 -.00000268  00000-0 -46757-6 0  9997,2 55942  70.0005   1.1560 0002633 253.5329 106.5577 15.69917110 10579,6737.271,91.725,360.91,357.362,0.0
